STARLINK-11650 [DTC]    
1 63312U 25057F   25165.80338139  .00165607  00000+0  12676-2 0  9996
2 63312  42.9996  79.4788 0002247 255.2727 104.7892 15.70857111 15074
STARLINK-11648 [DTC]    
1 63313U 25057G   25165.80247088  .00209272  00000+0  15914-2 0  9994
2 63313  43.0008  79.4707 0001880 257.2221 102.8437 15.70873796 14648
STARLINK-11640 [DTC]    
1 63314U 25057H   25165.47925169  .00233575  00000+0  17723-2 0  9994
2 63314  43.0000  81.3447 0000359  18.5284 341.5597 15.70850172 14991
STARLINK-11652 [DTC]    
1 63315U 25057J   25165.46863003  .00188664  00000+0  14405-2 0  9994
2 63315  43.0001  81.2577 0000230  34.0541 326.0342 15.70842289 15024
STARLINK-11645 [DTC]    
1 63316U 25057K   25165.80779637  .00154373  00000+0  11857-2 0  9990
2 63316  43.0006  79.5125 0001282 301.8877  58.1866 15.70812949 15073
STARLINK-11633 [DTC]    
1 63317U 25057L   25165.18773788  .00207464  00000+0  15783-2 0  9995
2 63317  43.0001  82.5781 0001792 290.7592  69.3083 15.70869720 14935
STARLINK-11593 [DTC]    
1 63318U 25057M   25165.77061232  .00260865  00000+0  19732-2 0  9997
2 63318  42.9998  79.2144 0001404 284.1496  75.9215 15.70841579 15073
STARLINK-11588 [DTC]    
1 63319U 25057N   25165.78122979  .00218606  00000+0  16620-2 0  9994
2 63319  43.0008  79.2964 0002413 263.8932  96.1660 15.70849503 14914
STARLINK-33671          
1 63320U 25057P   25165.50609967  .00040074  00000+0  96182-3 0  9997
2 63320  42.9988 100.1036 0001615 253.2794 106.7885 15.40691398 14828
STARLINK-33650          
1 63321U 25057Q   25165.69441413  .00022387  00000+0  82053-3 0  9997
2 63321  43.0002 104.1151 0001321 210.6132 149.4643 15.27581692 14520
STARLINK-33689          
1 63322U 25057R   25165.03283638  .00033194  00000+0  12089-2 0  9998
2 63322  43.0034 107.7515 0002125 282.0203  78.0410 15.27618812 14696
STARLINK-33607          
1 63323U 25057S   25165.12006788  .00029259  00000+0  10674-2 0  9993
2 63323  43.0009 107.5545 0001575 271.2873  88.7799 15.27616028 14663
STARLINK-33619          
1 63324U 25057T   25165.87387476  .00017925  00000+0  65939-3 0  9994
2 63324  43.0011 102.8786 0000482 279.0337  81.0460 15.27576629 14820
STARLINK-33612          
1 63325U 25057U   25165.53681497  .00019845  00000+0  72865-3 0  9997
2 63325  43.0003 105.5226 0001836 267.1735  92.8906 15.27584012 14768
