[
  {
    "OBJECT_NAME": "STARLINK-11650 [DTC]",
    "OBJECT_ID": "2025-057F",
    "EPOCH": "2025-06-14T19:16:52.152096",
    "MEAN_MOTION": 15.70857111,
    "ECCENTRICITY": 0.0002247,
    "INCLINATION": 42.9996,
    "RA_OF_ASC_NODE": 79.4788,
    "ARG_OF_PERICENTER": 255.2727,
    "MEAN_ANOMALY": 104.7892,
    "EPHEMERIS_TYPE": 0,
    "CLASSIFICATION_TYPE": "U",
    "NORAD_CAT_ID": 63312,
    "ELEMENT_SET_NO": 999,
    "REV_AT_EPOCH": 1507,
    "BSTAR": 0.0012676,
    "MEAN_MOTION_DOT": 0.00165607,
    "MEAN_MOTION_DDOT": 0
  },
  {
    "OBJECT_NAME": "STARLINK-11648 [DTC]",
    "OBJECT_ID": "2025-057G",
    "EPOCH": "2025-06-14T19:15:33.484032",
    "MEAN_MOTION": 15.70873796,
    "ECCENTRICITY": 0.000188,
    "INCLINATION": 43.0008,
    "RA_OF_ASC_NODE": 79.4707,
    "ARG_OF_PERICENTER": 257.2221,
    "MEAN_ANOMALY": 102.8437,
    "EPHEMERIS_TYPE": 0,
    "CLASSIFICATION_TYPE": "U",
    "NORAD_CAT_ID": 63313,
    "ELEMENT_SET_NO": 999,
    "REV_AT_EPOCH": 1464,
    "BSTAR": 0.0015914,
    "MEAN_MOTION_DOT": 0.00209272,
    "MEAN_MOTION_DDOT": 0
  },
  {
    "OBJECT_NAME": "STARLINK-11640 [DTC]",
    "OBJECT_ID": "2025-057H",
    "EPOCH": "2025-06-14T11:30:07.346016",
    "MEAN_MOTION": 15.70850172,
    "ECCENTRICITY": 3.59e-05,
    "INCLINATION": 43,
    "RA_OF_ASC_NODE": 81.3447,
    "ARG_OF_PERICENTER": 18.5284,
    "MEAN_ANOMALY": 341.5597,
    "EPHEMERIS_TYPE": 0,
    "CLASSIFICATION_TYPE": "U",
    "NORAD_CAT_ID": 63314,
    "ELEMENT_SET_NO": 999,
    "REV_AT_EPOCH": 1499,
    "BSTAR": 0.0017723,
    "MEAN_MOTION_DOT": 0.00233575,
    "MEAN_MOTION_DDOT": 0
  },
  {
    "OBJECT_NAME": "STARLINK-11652 [DTC]",
    "OBJECT_ID": "2025-057J",
    "EPOCH": "2025-06-14T11:14:49.634592",
    "MEAN_MOTION": 15.70842289,
    "ECCENTRICITY": 2.3e-05,
    "INCLINATION": 43.0001,
    "RA_OF_ASC_NODE": 81.2577,
    "ARG_OF_PERICENTER": 34.0541,
    "MEAN_ANOMALY": 326.0342,
    "EPHEMERIS_TYPE": 0,
    "CLASSIFICATION_TYPE": "U",
    "NORAD_CAT_ID": 63315,
    "ELEMENT_SET_NO": 999,
    "REV_AT_EPOCH": 1502,
    "BSTAR": 0.0014405,
    "MEAN_MOTION_DOT": 0.00188664,
    "MEAN_MOTION_DDOT": 0
  },
  {
    "OBJECT_NAME": "STARLINK-11645 [DTC]",
    "OBJECT_ID": "2025-057K",
    "EPOCH": "2025-06-14T19:23:13.606368",
    "MEAN_MOTION": 15.70812949,
    "ECCENTRICITY": 0.0001282,
    "INCLINATION": 43.0006,
    "RA_OF_ASC_NODE": 79.5125,
    "ARG_OF_PERICENTER": 301.8877,
    "MEAN_ANOMALY": 58.1866,
    "EPHEMERIS_TYPE": 0,
    "CLASSIFICATION_TYPE": "U",
    "NORAD_CAT_ID": 63316,
    "ELEMENT_SET_NO": 999,
    "REV_AT_EPOCH": 1507,
    "BSTAR": 0.0011857,
    "MEAN_MOTION_DOT": 0.00154373,
    "MEAN_MOTION_DDOT": 0
  },
  {
    "OBJECT_NAME": "STARLINK-11633 [DTC]",
    "OBJECT_ID": "2025-057L",
    "EPOCH": "2025-06-14T04:30:20.552832",
    "MEAN_MOTION": 15.7086972,
    "ECCENTRICITY": 0.0001792,
    "INCLINATION": 43.0001,
    "RA_OF_ASC_NODE": 82.5781,
    "ARG_OF_PERICENTER": 290.7592,
    "MEAN_ANOMALY": 69.3083,
    "EPHEMERIS_TYPE": 0,
    "CLASSIFICATION_TYPE": "U",
    "NORAD_CAT_ID": 63317,
    "ELEMENT_SET_NO": 999,
    "REV_AT_EPOCH": 1493,
    "BSTAR": 0.0015783,
    "MEAN_MOTION_DOT": 0.00207464,
    "MEAN_MOTION_DDOT": 0
  },
  {
    "OBJECT_NAME": "STARLINK-11593 [DTC]",
    "OBJECT_ID": "2025-057M",
    "EPOCH": "2025-06-14T18:29:40.904448",
    "MEAN_MOTION": 15.70841579,
    "ECCENTRICITY": 0.0001404,
    "INCLINATION": 42.9998,
    "RA_OF_ASC_NODE": 79.2144,
    "ARG_OF_PERICENTER": 284.1496,
    "MEAN_ANOMALY": 75.9215,
    "EPHEMERIS_TYPE": 0,
    "CLASSIFICATION_TYPE": "U",
    "NORAD_CAT_ID": 63318,
    "ELEMENT_SET_NO": 999,
    "REV_AT_EPOCH": 1507,
    "BSTAR": 0.0019732,
    "MEAN_MOTION_DOT": 0.00260865,
    "MEAN_MOTION_DDOT": 0
  },
  {
    "OBJECT_NAME": "STARLINK-11588 [DTC]",
    "OBJECT_ID": "2025-057N",
    "EPOCH": "2025-06-14T18:44:58.253856",
    "MEAN_MOTION": 15.70849503,
    "ECCENTRICITY": 0.0002413,
    "INCLINATION": 43.0008,
    "RA_OF_ASC_NODE": 79.2964,
    "ARG_OF_PERICENTER": 263.8932,
    "MEAN_ANOMALY": 96.166,
    "EPHEMERIS_TYPE": 0,
    "CLASSIFICATION_TYPE": "U",
    "NORAD_CAT_ID": 63319,
    "ELEMENT_SET_NO": 999,
    "REV_AT_EPOCH": 1491,
    "BSTAR": 0.001662,
    "MEAN_MOTION_DOT": 0.00218606,
    "MEAN_MOTION_DDOT": 0
  },
  {
    "OBJECT_NAME": "STARLINK-33671",
    "OBJECT_ID": "2025-057P",
    "EPOCH": "2025-06-14T12:08:47.011488",
    "MEAN_MOTION": 15.40691398,
    "ECCENTRICITY": 0.0001615,
    "INCLINATION": 42.9988,
    "RA_OF_ASC_NODE": 100.1036,
    "ARG_OF_PERICENTER": 253.2794,
    "MEAN_ANOMALY": 106.7885,
    "EPHEMERIS_TYPE": 0,
    "CLASSIFICATION_TYPE": "U",
    "NORAD_CAT_ID": 63320,
    "ELEMENT_SET_NO": 999,
    "REV_AT_EPOCH": 1482,
    "BSTAR": 0.00096182,
    "MEAN_MOTION_DOT": 0.00040074,
    "MEAN_MOTION_DDOT": 0
  },
  {
    "OBJECT_NAME": "STARLINK-33650",
    "OBJECT_ID": "2025-057Q",
    "EPOCH": "2025-06-14T16:39:57.380832",
    "MEAN_MOTION": 15.27581692,
    "ECCENTRICITY": 0.0001321,
    "INCLINATION": 43.0002,
    "RA_OF_ASC_NODE": 104.1151,
    "ARG_OF_PERICENTER": 210.6132,
    "MEAN_ANOMALY": 149.4643,
    "EPHEMERIS_TYPE": 0,
    "CLASSIFICATION_TYPE": "U",
    "NORAD_CAT_ID": 63321,
    "ELEMENT_SET_NO": 999,
    "REV_AT_EPOCH": 1452,
    "BSTAR": 0.00082053,
    "MEAN_MOTION_DOT": 0.00022387,
    "MEAN_MOTION_DDOT": 0
  },
  {
    "OBJECT_NAME": "STARLINK-33689",
    "OBJECT_ID": "2025-057R",
    "EPOCH": "2025-06-14T00:47:17.063232",
    "MEAN_MOTION": 15.27618812,
    "ECCENTRICITY": 0.0002125,
    "INCLINATION": 43.0034,
    "RA_OF_ASC_NODE": 107.7515,
    "ARG_OF_PERICENTER": 282.0203,
    "MEAN_ANOMALY": 78.041,
    "EPHEMERIS_TYPE": 0,
    "CLASSIFICATION_TYPE": "U",
    "NORAD_CAT_ID": 63322,
    "ELEMENT_SET_NO": 999,
    "REV_AT_EPOCH": 1469,
    "BSTAR": 0.0012089,
    "MEAN_MOTION_DOT": 0.00033194,
    "MEAN_MOTION_DDOT": 0
  },
  {
    "OBJECT_NAME": "STARLINK-33607",
    "OBJECT_ID": "2025-057S",
    "EPOCH": "2025-06-14T02:52:53.864832",
    "MEAN_MOTION": 15.27616028,
    "ECCENTRICITY": 0.0001575,
    "INCLINATION": 43.0009,
    "RA_OF_ASC_NODE": 107.5545,
    "ARG_OF_PERICENTER": 271.2873,
    "MEAN_ANOMALY": 88.7799,
    "EPHEMERIS_TYPE": 0,
    "CLASSIFICATION_TYPE": "U",
    "NORAD_CAT_ID": 63323,
    "ELEMENT_SET_NO": 999,
    "REV_AT_EPOCH": 1466,
    "BSTAR": 0.0010674,
    "MEAN_MOTION_DOT": 0.00029259,
    "MEAN_MOTION_DDOT": 0
  },
  {
    "OBJECT_NAME": "STARLINK-33619",
    "OBJECT_ID": "2025-057T",
    "EPOCH": "2025-06-14T20:58:22.779264",
    "MEAN_MOTION": 15.27576629,
    "ECCENTRICITY": 4.82e-05,
    "INCLINATION": 43.0011,
    "RA_OF_ASC_NODE": 102.8786,
    "ARG_OF_PERICENTER": 279.0337,
    "MEAN_ANOMALY": 81.046,
    "EPHEMERIS_TYPE": 0,
    "CLASSIFICATION_TYPE": "U",
    "NORAD_CAT_ID": 63324,
    "ELEMENT_SET_NO": 999,
    "REV_AT_EPOCH": 1482,
    "BSTAR": 0.00065939,
    "MEAN_MOTION_DOT": 0.00017925,
    "MEAN_MOTION_DDOT": 0
  },
  {
    "OBJECT_NAME": "STARLINK-33612",
    "OBJECT_ID": "2025-057U",
    "EPOCH": "2025-06-14T12:53:00.813408",
    "MEAN_MOTION": 15.27584012,
    "ECCENTRICITY": 0.0001836,
    "INCLINATION": 43.0003,
    "RA_OF_ASC_NODE": 105.5226,
    "ARG_OF_PERICENTER": 267.1735,
    "MEAN_ANOMALY": 92.8906,
    "EPHEMERIS_TYPE": 0,
    "CLASSIFICATION_TYPE": "U",
    "NORAD_CAT_ID": 63325,
    "ELEMENT_SET_NO": 999,
    "REV_AT_EPOCH": 1476,
    "BSTAR": 0.00072865,
    "MEAN_MOTION_DOT": 0.00019845,
    "MEAN_MOTION_DDOT": 0
  }
]